ORBCOMM FM37            
1 33064U 08031E   24163.55333794  .00003121  00000+0  47077-3 0  9997
2 33064  48.4411 301.5951 0006595 233.0042 218.2068 14.76647594859218
ORBCOMM FM40            
1 33065U 08031F   24163.58843177  .00004365  00000+0  62643-3 0  9999
2 33065  48.4430 290.4880 0007990 241.6160 211.3944 14.78018617859265
VESSELSAT 1             
1 37840U 11058C   24163.39192817  .00000425  00000+0  87813-4 0  9994
2 37840  19.9600 177.2556 0013859  68.6081 291.5801 14.11164844653865
ORBCOMM FM109           
1 40086U 14040A   24163.46999403  .00001656  00000+0  40407-3 0  9992
2 40086  47.0046 325.3170 0001144  41.5536 318.5436 14.56727530526986
ORBCOMM FM107           
1 40087U 14040B   24163.50400774  .00001622  00000+0  39660-3 0  9998
2 40087  47.0065 326.1255 0001087 341.6274  18.4571 14.56737564527064
ORBCOMM FM106           
1 40088U 14040C   24163.33632732  .00001637  00000+0  32011-3 0  9990
2 40088  47.0592 177.6899 0016993 147.0044 213.1909 14.67173141528975
ORBCOMM FM111           
1 40089U 14040D   24163.45201879  .00004460  00000+0  57610-3 0  9997
2 40089  47.0046  74.3587 0033230 222.3331 137.4998 14.82027966535150
ORBCOMM FM104           
1 40090U 14040E   24163.50793809  .00001206  00000+0  31397-3 0  9993
2 40090  47.0070 355.3791 0017325 310.1116  49.8250 14.55221015526600
